[{"OBJECT_NAME":"ALSAT-1B","OBJECT_ID":"2016-059C","EPOCH":"2026-03-10T00:15:52.612704","MEAN_MOTION":14.72190019,"ECCENTRICITY":0.00091536,"INCLINATION":97.7807,"RA_OF_ASC_NODE":82.042,"ARG_OF_PERICENTER":176.3903,"MEAN_ANOMALY":183.7372,"EPHEMERIS_TYPE":0,"CLASSIFICATION_TYPE":"U","NORAD_CAT_ID":41785,"ELEMENT_SET_NO":999,"REV_AT_EPOCH":50598,"BSTAR":0.00016894626,"MEAN_MOTION_DOT":1.018e-5,"MEAN_MOTION_DDOT":0},{"OBJECT_NAME":"CZ-6A DEB","OBJECT_ID":"2022-151JX","EPOCH":"2026-03-09T23:22:38.191296","MEAN_MOTION":14.46172417,"ECCENTRICITY":0.01187301,"INCLINATION":98.5295,"RA_OF_ASC_NODE":95.1775,"ARG_OF_PERICENTER":277.96,"MEAN_ANOMALY":80.8132,"EPHEMERIS_TYPE":0,"CLASSIFICATION_TYPE":"U","NORAD_CAT_ID":54519,"ELEMENT_SET_NO":999,"REV_AT_EPOCH":17457,"BSTAR":0.00072632579,"MEAN_MOTION_DOT":2.783e-5,"MEAN_MOTION_DDOT":0}]
